{
    "links": {
        "self": "http://www.neowsapp.com/rest/v1/neo/3788142?api_key=iIulBulltgU6a56xZRHN4H3l9WmuAYTsLGpBGhQ2"
    },
    "id": "3788142",
    "neo_reference_id": "3788142",
    "name": "(2017 UD43)",
    "designation": "2017 UD43",
    "nasa_jpl_url": "http://ssd.jpl.nasa.gov/sbdb.cgi?sstr=3788142",
    "absolute_magnitude_h": 28.4,
    "estimated_diameter": {
        "kilometers": {
            "estimated_diameter_min": 0.0055533491,
            "estimated_diameter_max": 0.0124176661
        },
        "meters": {
            "estimated_diameter_min": 5.5533491158,
            "estimated_diameter_max": 12.4176661257
        },
        "miles": {
            "estimated_diameter_min": 0.0034506901,
            "estimated_diameter_max": 0.0077159776
        },
        "feet": {
            "estimated_diameter_min": 18.2196499131,
            "estimated_diameter_max": 40.740375732
        }
    },
    "is_potentially_hazardous_asteroid": false,
    "close_approach_data": [
        {
            "close_approach_date": "2011-02-21",
            "close_approach_date_full": "2011-Feb-21 19:39",
            "epoch_date_close_approach": 1298317140000,
            "relative_velocity": {
                "kilometers_per_second": "16.8358548745",
                "kilometers_per_hour": "60609.0775481352",
                "miles_per_hour": "37660.1237687288"
            },
            "miss_distance": {
                "astronomical": "0.3553938927",
                "lunar": "138.2482242603",
                "kilometers": "53166169.358928549",
                "miles": "33035925.7434060162"
            },
            "orbiting_body": "Earth"
        },
        {
            "close_approach_date": "2017-11-01",
            "close_approach_date_full": "2017-Nov-01 19:45",
            "epoch_date_close_approach": 1509565500000,
            "relative_velocity": {
                "kilometers_per_second": "8.8224508774",
                "kilometers_per_hour": "31760.823158763",
                "miles_per_hour": "19734.9403677325"
            },
            "miss_distance": {
                "astronomical": "0.0120349451",
                "lunar": "4.6815936439",
                "kilometers": "1800402.152526937",
                "miles": "1118718.0219362506"
            },
            "orbiting_body": "Earth"
        },
        {
            "close_approach_date": "2018-02-23",
            "close_approach_date_full": "2018-Feb-23 11:34",
            "epoch_date_close_approach": 1519385640000,
            "relative_velocity": {
                "kilometers_per_second": "3.415249198",
                "kilometers_per_hour": "12294.8971128491",
                "miles_per_hour": "7639.5709310367"
            },
            "miss_distance": {
                "astronomical": "0.3458184359",
                "lunar": "134.5233715651",
                "kilometers": "51733701.417371533",
                "miles": "32145831.4387438354"
            },
            "orbiting_body": "Earth"
        }
    ],
    "orbital_data": {
        "orbit_id": "1",
        "orbit_determination_date": "2017-10-30 11:31:24",
        "first_observation_date": "2017-10-28",
        "last_observation_date": "2017-10-30",
        "data_arc_in_days": 2,
        "observations_used": 27,
        "orbit_uncertainty": "7",
        "minimum_orbit_intersection": ".00975166",
        "jupiter_tisserand_invariant": "4.597",
        "epoch_osculation": "2459000.5",
        "eccentricity": ".3561944479512069",
        "semi_major_axis": "1.434386199528454",
        "inclination": "9.008285009432591",
        "ascending_node_longitude": "217.6789470419168",
        "orbital_period": "627.4766570039169",
        "perihelion_distance": ".9234657990385865",
        "perihelion_argument": "226.9989917453496",
        "aphelion_distance": "1.945306600018321",
        "perihelion_time": "2458723.438805090455",
        "mean_anomaly": "158.9573557105466",
        "mean_motion": ".5737265219059022",
        "equinox": "J2000",
        "orbit_class": {
            "orbit_class_type": "APO",
            "orbit_class_description": "Near-Earth asteroid orbits which cross the Earth’s orbit similar to that of 1862 Apollo",
            "orbit_class_range": "a (semi-major axis) > 1.0 AU; q (perihelion) < 1.017 AU"
        }
    },
    "is_sentry_object": false
}